[{"OBJECT_NAME":"OBJECT A","OBJECT_ID":"2025-180A","EPOCH":"2026-03-01T05:02:02.349888","MEAN_MOTION":15.19541211,"ECCENTRICITY":0.00119112,"INCLINATION":97.5026,"RA_OF_ASC_NODE":189.2879,"ARG_OF_PERICENTER":335.2896,"MEAN_ANOMALY":24.7766,"EPHEMERIS_TYPE":0,"CLASSIFICATION_TYPE":"U","NORAD_CAT_ID":65259,"ELEMENT_SET_NO":999,"REV_AT_EPOCH":2937,"BSTAR":0.0010883245,"MEAN_MOTION_DOT":0.00023159,"MEAN_MOTION_DDOT":0},{"OBJECT_NAME":"OBJECT E","OBJECT_ID":"2026-027E","EPOCH":"2026-03-09T23:02:51.074304","MEAN_MOTION":15.18126455,"ECCENTRICITY":0.00095432,"INCLINATION":97.4916,"RA_OF_ASC_NODE":197.9906,"ARG_OF_PERICENTER":204.0559,"MEAN_ANOMALY":156.0231,"EPHEMERIS_TYPE":0,"CLASSIFICATION_TYPE":"U","NORAD_CAT_ID":67750,"ELEMENT_SET_NO":999,"REV_AT_EPOCH":390,"BSTAR":0.00052617812,"MEAN_MOTION_DOT":0.00010689,"MEAN_MOTION_DDOT":0}]
